{
  "norad_id": 68636,
  "name": "QIANFAN GROUP 7 OBJECT A",
  "history": [
    {
      "epoch": "2026-04-16T21:03:56.174400Z",
      "apogee_km": 831.5615774867147,
      "perigee_km": 811.0575536679498,
      "latitude_deg": 3.999081496976953e-05,
      "longitude_deg": 166.6381086439302,
      "height_km": 834.6024505899976,
      "semi_major_axis_km": 7199.446565577332,
      "eccentricity": 0.001424,
      "inclination_deg": 88.9912,
      "raan_deg": 327.6413,
      "arg_perigee_deg": 183.3207,
      "mean_anomaly_deg": 176.7892,
      "mean_motion_rev_day": 14.21196381
    }
  ]
}