QIANFAN GROUP 7 OBJECT A
1 68636U 26075A   26106.87773350  .00000263  00000+0  11425-3 0  9990
2 68636  88.9912 327.6413 0014240 183.3207 176.7892 14.21196381  1321
